[{"OBJECT_NAME":"SITRO-AIS 21","OBJECT_ID":"2024-199E","EPOCH":"2026-03-09T22:38:47.668992","MEAN_MOTION":14.94747634,"ECCENTRICITY":0.00136926,"INCLINATION":97.333,"RA_OF_ASC_NODE":273.2344,"ARG_OF_PERICENTER":42.1108,"MEAN_ANOMALY":318.1163,"EPHEMERIS_TYPE":0,"CLASSIFICATION_TYPE":"U","NORAD_CAT_ID":61739,"ELEMENT_SET_NO":999,"REV_AT_EPOCH":11692,"BSTAR":0.00018121744,"MEAN_MOTION_DOT":1.92e-5,"MEAN_MOTION_DDOT":0},{"OBJECT_NAME":"STARLINK-34088","OBJECT_ID":"2025-102D","EPOCH":"2026-03-09T12:34:58.309536","MEAN_MOTION":14.98327665,"ECCENTRICITY":0.00035403,"INCLINATION":70.0003,"RA_OF_ASC_NODE":115.02,"ARG_OF_PERICENTER":271.83,"MEAN_ANOMALY":88.2454,"EPHEMERIS_TYPE":0,"CLASSIFICATION_TYPE":"U","NORAD_CAT_ID":64025,"ELEMENT_SET_NO":999,"REV_AT_EPOCH":4593,"BSTAR":6.7168764e-5,"MEAN_MOTION_DOT":7.08e-6,"MEAN_MOTION_DDOT":0}]
